{"type": "FeatureCollection", "features": [{"geom": {"type": "LineString", "coordinates": [[-120.001516, 39.643619], [-120.001634, 39.643645], [-120.001694, 39.643654], [-120.001804, 39.643655], [-120.00209, 39.643635]]}, "props": {"MTFCC": "S1400", "NAME": null}}, {"geom": {"type": "LineString", "coordinates": [[-120.001406, 39.669886], [-120.00121, 39.669848], [-120.001006, 39.669819]]}, "props": {"MTFCC": "S1400", "NAME": null}}, {"geom": {"type": "LineString", "coordinates": [[-120.001878, 39.522402], [-120.002377, 39.522432], [-120.0024, 39.522432]]}, "props": {"MTFCC": "S1400", "NAME": null}}, {"geom": {"type": "LineString", "coordinates": [[-120.0024, 39.5921309787234], [-120.002382, 39.592108], [-120.00232, 39.592012], [-120.002191, 39.591774], [-120.002162, 39.591728], [-120.002117, 39.591678], [-120.001936, 39.591549], [-120.00183, 39.591463], [-120.001701, 39.591329], [-120.001511, 39.591149], [-120.001271, 39.590887], [-120.001195, 39.59081]]}, "props": {"MTFCC": "S1400", "NAME": null}}, {"geom": {"type": "LineString", "coordinates": [[-120.0024, 39.67696656338028], [-120.002144, 39.676734], [-120.001924, 39.676498], [-120.001814, 39.676365], [-120.00141, 39.675822], [-120.001365, 39.675754], [-120.001166, 39.675452], [-120.001114, 39.675399], [-120.000996, 39.675297], [-120.000948, 39.675248], [-120.000903, 39.675144]]}, "props": {"MTFCC": "S1400", "NAME": null}}, {"geom": {"type": "MultiLineString", "coordinates": [[[-120.000925, 39.672255], [-120.00119, 39.672566], [-120.001373, 39.672758], [-120.0024, 39.673834693548386]], [[-120.0024, 39.67426451428572], [-120.002191, 39.674372], [-120.001726, 39.674621]]]}, "props": {"MTFCC": "S1400", "NAME": null}}, {"geom": {"type": "MultiLineString", "coordinates": [[[-120.001819, 39.644135], [-120.001508, 39.644853], [-120.001493, 39.644964], [-120.00148, 39.64528], [-120.001533, 39.64548], [-120.001688, 39.646206], [-120.001859, 39.647192], [-120.001948, 39.647813], [-120.002287, 39.649628], [-120.0024, 39.65013317647059]], [[-120.0024, 39.661974446188346], [-120.002237, 39.662284], [-120.001878, 39.662983], [-120.001567, 39.663606], [-120.001531, 39.663697], [-120.001596, 39.664546], [-120.001441, 39.665025], [-120.001376, 39.665274], [-120.001308, 39.665537], [-120.001375, 39.668359], [-120.001388, 39.66865], [-120.001397, 39.669], [-120.001469, 39.669146]]]}, "props": {"MTFCC": "S1400", "NAME": null}}, {"geom": {"type": "LineString", "coordinates": [[-120.00215, 39.506093], [-120.002275, 39.506099], [-120.0024, 39.50609214516129]]}, "props": {"MTFCC": "S1400", "NAME": null}}, {"geom": {"type": "LineString", "coordinates": [[-120.001918, 39.520095], [-120.001938, 39.520138], [-120.0024, 39.520679046511624]]}, "props": {"MTFCC": "S1400", "NAME": null}}, {"geom": {"type": "LineString", "coordinates": [[-120.00222, 39.524706], [-120.0024, 39.52644710599074]]}, "props": {"MTFCC": "S1400", "NAME": null}}, {"geom": {"type": "LineString", "coordinates": [[-120.00114, 39.635887], [-120.001287, 39.636049], [-120.001404, 39.636157], [-120.001518, 39.63627], [-120.001695, 39.636413], [-120.001967, 39.636611], [-120.002019, 39.636644], [-120.002133, 39.636733], [-120.002268, 39.636854]]}, "props": {"MTFCC": "S1400", "NAME": null}}, {"geom": {"type": "LineString", "coordinates": [[-120.002018, 39.514956], [-120.002106, 39.514928], [-120.0024, 39.51492622624434]]}, "props": {"MTFCC": "S1400", "NAME": null}}, {"geom": {"type": "LineString", "coordinates": [[-120.00215, 39.50542], [-120.002267, 39.505424], [-120.0024, 39.505422936]]}, "props": {"MTFCC": "S1400", "NAME": null}}, {"geom": {"type": "LineString", "coordinates": [[-120.0024, 39.628776736842106], [-120.002386, 39.628762], [-120.002364, 39.628743], [-120.00234, 39.628727], [-120.002312, 39.628711], [-120.002286, 39.628699], [-120.002256, 39.628689], [-120.002226, 39.628682], [-120.002179, 39.628668], [-120.002034, 39.628615]]}, "props": {"MTFCC": "S1400", "NAME": null}}, {"geom": {"type": "LineString", "coordinates": [[-120.002289, 39.496373], [-120.002308, 39.496378], [-120.0024, 39.49641047058823]]}, "props": {"MTFCC": "S1400", "NAME": null}}, {"geom": {"type": "LineString", "coordinates": [[-120.0024, 39.666574000000004], [-120.002388, 39.666594], [-120.002296, 39.666793], [-120.002247, 39.666969], [-120.001888, 39.667926], [-120.001695, 39.668488], [-120.001596, 39.668801], [-120.001553, 39.668904], [-120.001469, 39.669146], [-120.001451, 39.669289], [-120.001435, 39.669713], [-120.001406, 39.669886], [-120.001356, 39.670031], [-120.001323, 39.670174], [-120.001325, 39.670378], [-120.001359, 39.670511], [-120.001394, 39.670556], [-120.001449, 39.670626], [-120.00156, 39.670725], [-120.001681, 39.670818], [-120.001845, 39.670953], [-120.001991, 39.671081], [-120.002119, 39.671201], [-120.002373, 39.671524], [-120.0024, 39.67156260330577]]}, "props": {"MTFCC": "S1400", "NAME": null}}, {"geom": {"type": "LineString", "coordinates": [[-120.001841, 39.524678], [-120.001882, 39.524679], [-120.00222, 39.524706], [-120.0024, 39.524713670454545]]}, "props": {"MTFCC": "S1400", "NAME": null}}, {"geom": {"type": "LineString", "coordinates": [[-120.00209, 39.643635], [-120.001819, 39.644135]]}, "props": {"MTFCC": "S1400", "NAME": null}}, {"geom": {"type": "LineString", "coordinates": [[-120.0024, 39.62765636206897], [-120.002353, 39.627769], [-120.002323, 39.627902], [-120.002284, 39.628017], [-120.002254, 39.628062], [-120.002215, 39.6281], [-120.002165, 39.628131], [-120.002109, 39.628153], [-120.002043, 39.628167], [-120.00188, 39.628163], [-120.001814, 39.628172], [-120.001774, 39.628191], [-120.001743, 39.628218], [-120.001723, 39.628251], [-120.001711, 39.628321], [-120.001717, 39.628401], [-120.00173, 39.628442], [-120.001763, 39.628486], [-120.001812, 39.62852], [-120.001978, 39.628594], [-120.002034, 39.628615]]}, "props": {"MTFCC": "S1740", "NAME": null}}, {"geom": {"type": "LineString", "coordinates": [[-120.001774, 39.536772], [-120.0024, 39.53680306271537]]}, "props": {"MTFCC": "S1500", "NAME": null}}, {"geom": {"type": "LineString", "coordinates": [[-120.001761, 39.529186], [-120.001789, 39.529232], [-120.001829, 39.529279], [-120.001945, 39.529373], [-120.002175, 39.5296], [-120.002308, 39.529743], [-120.0024, 39.52985902222222]]}, "props": {"MTFCC": "S1400", "NAME": null}}, {"geom": {"type": "LineString", "coordinates": [[-120.001919, 39.674111], [-120.002128, 39.674228], [-120.002157, 39.674238], [-120.002253, 39.674252], [-120.002331, 39.674251], [-120.0024, 39.674239664285714]]}, "props": {"MTFCC": "S1630", "NAME": null}}, {"geom": {"type": "LineString", "coordinates": [[-120.001149, 39.643372], [-120.001516, 39.643619]]}, "props": {"MTFCC": "S1400", "NAME": null}}, {"geom": {"type": "LineString", "coordinates": [[-120.00209, 39.643635], [-120.0024, 39.64303394093688]]}, "props": {"MTFCC": "S1400", "NAME": null}}, {"geom": {"type": "LineString", "coordinates": [[-120.0024, 39.63689423076923], [-120.002352, 39.636877], [-120.002268, 39.636854]]}, "props": {"MTFCC": "S1400", "NAME": null}}, {"geom": {"type": "LineString", "coordinates": [[-120.002268, 39.636854], [-120.00237, 39.636989], [-120.0024, 39.63703205755395]]}, "props": {"MTFCC": "S1400", "NAME": null}}, {"geom": {"type": "LineString", "coordinates": [[-120.001597, 39.566042], [-120.001704, 39.566051], [-120.001947, 39.566062], [-120.0024, 39.566098917545546]]}, "props": {"MTFCC": "S1500", "NAME": null}}, {"geom": {"type": "LineString", "coordinates": [[-120.000912, 39.673642], [-120.001369, 39.674192], [-120.001726, 39.674621], [-120.001841, 39.674747], [-120.0024, 39.67540437150838]]}, "props": {"MTFCC": "S1200", "NAME": null}}, {"geom": {"type": "LineString", "coordinates": [[-120.000918, 39.673], [-120.001371, 39.673503], [-120.001919, 39.674111], [-120.002191, 39.674372], [-120.0024, 39.67454661439589]]}, "props": {"MTFCC": "S1200", "NAME": null}}, {"geom": {"type": "LineString", "coordinates": [[-120.001819, 39.644135], [-120.001817, 39.644032], [-120.001744, 39.643861], [-120.001712, 39.643813], [-120.001689, 39.64379], [-120.001516, 39.643619]]}, "props": {"MTFCC": "S1400", "NAME": null}}], "source": "https://www2.census.gov/geo/tiger/TIGER2024/ROADS/tl_2024_06091_roads.zip", "county_fips": "06091"}