{"type": "FeatureCollection", "features": [{"geom": {"type": "LineString", "coordinates": [[-120.0024, 39.75642261538462], [-120.002257, 39.756591], [-120.002172, 39.756703], [-120.002082, 39.756838], [-120.002056, 39.756884], [-120.002026, 39.756925], [-120.00195, 39.756997], [-120.001869, 39.757049], [-120.001775, 39.757083], [-120.001713, 39.757122], [-120.001663, 39.75717], [-120.001503, 39.75739], [-120.001426, 39.757456], [-120.001106, 39.757774], [-120.001061, 39.757822], [-120.001037, 39.757878], [-120.001037, 39.757938], [-120.001067, 39.758098], [-120.001086, 39.758239], [-120.001096, 39.758361], [-120.001091, 39.758485], [-120.001077, 39.758586], [-120.001045, 39.75868], [-120.001002, 39.758783], [-120.000995, 39.758807], [-120.000987, 39.758877], [-120.000982, 39.759065], [-120.000996, 39.759245], [-120.001, 39.759372], [-120.000985, 39.759631], [-120.000984, 39.759722], [-120.000993, 39.759815], [-120.000992, 39.759968], [-120.000979, 39.760197], [-120.000981, 39.760588], [-120.000973, 39.761049], [-120.000945, 39.761483], [-120.000955, 39.761598], [-120.000984, 39.761725], [-120.001011, 39.761896], [-120.001035, 39.76201], [-120.001097, 39.762256], [-120.00119, 39.762741], [-120.001229, 39.762904], [-120.001296, 39.763152], [-120.00142, 39.763568], [-120.00147, 39.763894], [-120.00152, 39.764381], [-120.001485, 39.764688], [-120.001412, 39.764951], [-120.001398, 39.76506], [-120.001392, 39.765194], [-120.001367, 39.765487], [-120.001282, 39.765885], [-120.001166, 39.766284], [-120.001093, 39.76646], [-120.001036, 39.766557], [-120.000954, 39.766685], [-120.000903, 39.766781], [-120.000881, 39.766876], [-120.000867, 39.766966], [-120.000859, 39.767095], [-120.000851, 39.767427], [-120.000875, 39.767682], [-120.000839, 39.768563], [-120.000683, 39.768725]]}, "props": {"MTFCC": "S1400", "NAME": null}}, {"geom": {"type": "LineString", "coordinates": [[-120.001302, 39.734755], [-120.001503, 39.734829], [-120.001694, 39.734972]]}, "props": {"MTFCC": "S1400", "NAME": null}}, {"geom": {"type": "LineString", "coordinates": [[-119.999099, 39.895338], [-119.999544, 39.895458], [-120.000244, 39.895663], [-120.000603, 39.89573], [-120.000762, 39.895765], [-120.000896, 39.895811], [-120.001128, 39.895903], [-120.002157, 39.896219], [-120.0024, 39.896281073267325]]}, "props": {"MTFCC": "S1400", "NAME": null}}, {"geom": {"type": "LineString", "coordinates": [[-120.001954, 39.73532], [-120.002001, 39.735228], [-120.0021, 39.734925], [-120.002095, 39.734844], [-120.002083, 39.734765]]}, "props": {"MTFCC": "S1400", "NAME": null}}, {"geom": {"type": "LineString", "coordinates": [[-119.997333, 40.091788], [-119.997811, 40.091797], [-119.998669, 40.0918], [-119.999181, 40.091825], [-119.99966, 40.091828], [-120.001094, 40.091824], [-120.0024, 40.09183668933777]]}, "props": {"MTFCC": "S1400", "NAME": null}}, {"geom": {"type": "LineString", "coordinates": [[-119.997215, 40.114498], [-119.997189, 40.116695], [-119.997152, 40.119786], [-119.997151, 40.120032], [-119.997137, 40.124904], [-119.997164, 40.12608], [-119.99717, 40.126322]]}, "props": {"MTFCC": "S1400", "NAME": null}}, {"geom": {"type": "LineString", "coordinates": [[-120.0024, 39.97950356], [-120.002344, 39.979517], [-120.002128, 39.979557], [-120.001718, 39.979657], [-120.001511, 39.979723], [-120.001397, 39.979778], [-120.001274, 39.979827], [-120.001075, 39.979929], [-120.000993, 39.97995], [-120.000857, 39.979954], [-120.000794, 39.979967], [-120.000409, 39.980106], [-119.99993, 39.980308], [-119.999496, 39.980515], [-119.999455, 39.980542], [-119.999419, 39.980575], [-119.999343, 39.980611], [-119.999142, 39.980677], [-119.999043, 39.980689], [-119.998931, 39.980693], [-119.998874, 39.980706], [-119.998765, 39.980739], [-119.998585, 39.980802], [-119.998052, 39.981031], [-119.99794, 39.981105], [-119.997914, 39.981128]]}, "props": {"MTFCC": "S1400", "NAME": null}}, {"geom": {"type": "LineString", "coordinates": [[-119.997321, 40.084523], [-119.997852, 40.084528], [-119.998807, 40.084543], [-119.999726, 40.084545]]}, "props": {"MTFCC": "S1400", "NAME": null}}, {"geom": {"type": "LineString", "coordinates": [[-119.997304, 40.077266], [-119.997512, 40.077281]]}, "props": {"MTFCC": "S1400", "NAME": null}}, {"geom": {"type": "LineString", "coordinates": [[-119.999084, 39.904257], [-120.000116, 39.904873], [-120.000231, 39.904983], [-120.000321, 39.905083], [-120.000642, 39.905472], [-120.001064, 39.90597], [-120.001434, 39.906383], [-120.00171, 39.906633], [-120.001829, 39.906734], [-120.001969, 39.906842], [-120.00213, 39.906955], [-120.002331, 39.907085], [-120.0024, 39.90711747058823]]}, "props": {"MTFCC": "S1400", "NAME": null}}, {"geom": {"type": "LineString", "coordinates": [[-120.0024, 39.751444957746486], [-120.002332, 39.751512], [-120.00222, 39.751595], [-120.001999, 39.751779], [-120.001958, 39.751808], [-120.001864, 39.751855], [-120.001813, 39.751873], [-120.001759, 39.751886], [-120.001695, 39.751896], [-120.00149, 39.75191], [-120.001133, 39.752229]]}, "props": {"MTFCC": "S1400", "NAME": null}}, {"geom": {"type": "MultiLineString", "coordinates": [[[-120.000538, 39.780788], [-120.000759, 39.781125], [-120.000945, 39.781379], [-120.001137, 39.781657], [-120.001286, 39.781836], [-120.001347, 39.781935], [-120.001438, 39.782147], [-120.001508, 39.782339], [-120.001579, 39.782516], [-120.001628, 39.782675], [-120.001674, 39.782867], [-120.001715, 39.783072], [-120.001749, 39.783165], [-120.001817, 39.783329], [-120.001886, 39.783535], [-120.001952, 39.783778], [-120.001971, 39.783829], [-120.002004, 39.783889], [-120.002147, 39.7841], [-120.00218, 39.784175], [-120.002204, 39.784262], [-120.002217, 39.784352], [-120.002213, 39.784485], [-120.002217, 39.784556], [-120.002236, 39.784618], [-120.002271, 39.784691], [-120.002323, 39.784773], [-120.002363, 39.784867], [-120.0024, 39.78497429999997]], [[-120.0024, 39.78516145714286], [-120.002382, 39.785253], [-120.002395, 39.785335], [-120.0024, 39.78534749999998]]]}, "props": {"MTFCC": "S1400", "NAME": null}}, {"geom": {"type": "LineString", "coordinates": [[-120.0024, 40.42801725660964], [-120.002264, 40.427928], [-120.002098, 40.427806], [-120.002021, 40.427778], [-120.001965, 40.427762], [-120.001901, 40.427737], [-120.00164, 40.427568], [-120.001372, 40.427361], [-120.001293, 40.427309], [-120.001232, 40.427279], [-120.001192, 40.427268], [-120.001155, 40.427271], [-120.001119, 40.427283], [-120.001102, 40.427296], [-120.001073, 40.42733], [-120.001019, 40.427447], [-120.000889, 40.427781], [-120.000866, 40.427804], [-120.00082, 40.427825], [-120.000778, 40.427834], [-120.000729, 40.427829], [-120.000679, 40.42781], [-120.000636, 40.427783], [-120.0006, 40.427749], [-120.000479, 40.427578], [-120.000417, 40.427519], [-120.000365, 40.427485], [-120.00032, 40.427461], [-120.000256, 40.427412], [-120.00023, 40.427383], [-120.000178, 40.427325], [-120.000075, 40.427222], [-120.000057, 40.42721], [-120.00002, 40.427197], [-119.999974, 40.427198], [-119.999899, 40.427207], [-119.999844, 40.427222], [-119.999678, 40.4273], [-119.999561, 40.427347], [-119.999425, 40.427394], [-119.999199, 40.427443], [-119.999061, 40.427498], [-119.998918, 40.427576], [-119.998135, 40.427982], [-119.997783, 40.428186], [-119.997193, 40.42848], [-119.997096, 40.428537], [-119.996973, 40.428602], [-119.996676, 40.428739], [-119.996539, 40.428766], [-119.995625, 40.428877]]}, "props": {"MTFCC": "S1400", "NAME": null}}, {"geom": {"type": "LineString", "coordinates": [[-119.99715, 40.62622], [-119.99703, 40.626166], [-119.996937, 40.626088], [-119.996827, 40.625897]]}, "props": {"MTFCC": "S1500", "NAME": null}}, {"geom": {"type": "LineString", "coordinates": [[-119.995923, 40.556644], [-119.996104, 40.556792], [-119.996311, 40.556919], [-119.996529, 40.557026], [-119.996871, 40.557184], [-119.99738, 40.557396], [-119.997457, 40.557424], [-119.997516, 40.557452], [-119.997571, 40.557486], [-119.997663, 40.557565], [-119.997719, 40.557635], [-119.997972, 40.558036], [-119.998142, 40.558229], [-119.998335, 40.558433], [-119.998537, 40.558611], [-119.998638, 40.558707], [-119.998743, 40.558836], [-119.998895, 40.559127], [-119.999174, 40.559559], [-119.999196, 40.559605], [-119.999212, 40.559652], [-119.999222, 40.5597], [-119.999224, 40.55975], [-119.999173, 40.560056], [-119.999159, 40.560106], [-119.999159, 40.560164], [-119.999173, 40.56022], [-119.999186, 40.560248], [-119.999334, 40.560454], [-119.999366, 40.560533], [-119.999376, 40.560614], [-119.999356, 40.561052], [-119.999373, 40.561161], [-119.999422, 40.561296], [-119.999491, 40.561397], [-119.999592, 40.561497], [-119.999674, 40.561556], [-119.99973, 40.561621], [-119.99977, 40.561683], [-119.999802, 40.561747], [-119.999822, 40.561806], [-119.999872, 40.562012], [-119.999914, 40.562059], [-119.999986, 40.562101], [-120.00007, 40.56212], [-120.000443, 40.562436], [-120.00061, 40.562601], [-120.00064, 40.562618], [-120.000668, 40.562625], [-120.000714, 40.562651], [-120.001078, 40.562903]]}, "props": {"MTFCC": "S1400", "NAME": null}}, {"geom": {"type": "LineString", "coordinates": [[-120.002083, 39.734765], [-120.002055, 39.734836], [-120.001978, 39.734917], [-120.001938, 39.734942], [-120.001867, 39.734966], [-120.001808, 39.734973], [-120.001694, 39.734972]]}, "props": {"MTFCC": "S1400", "NAME": null}}, {"geom": {"type": "LineString", "coordinates": [[-120.0024, 39.79927104651163], [-120.002308, 39.799278], [-120.00172, 39.799387], [-120.001605, 39.799393], [-120.00144, 39.799394], [-120.001142, 39.799406], [-120.001018, 39.799416], [-120.000934, 39.799417], [-120.000829, 39.799407], [-120.000515, 39.79935]]}, "props": {"MTFCC": "S1400", "NAME": null}}, {"geom": {"type": "LineString", "coordinates": [[-120.00095, 40.701087], [-120.000075, 40.701343], [-119.999047, 40.701628], [-119.998912, 40.701675], [-119.998787, 40.701707], [-119.998634, 40.70173], [-119.998559, 40.701738], [-119.99845, 40.701755], [-119.998345, 40.701782], [-119.998224, 40.701824], [-119.997837, 40.70189]]}, "props": {"MTFCC": "S1400", "NAME": null}}, {"geom": {"type": "LineString", "coordinates": [[-120.001954, 39.73532], [-120.002013, 39.735517], [-120.00203, 39.735612], [-120.002016, 39.735939], [-120.002022, 39.736103], [-120.002019, 39.736226], [-120.002003, 39.736311], [-120.001898, 39.736602], [-120.001825, 39.736724], [-120.001747, 39.736822], [-120.001711, 39.73686], [-120.001677, 39.736906], [-120.001649, 39.736953], [-120.001629, 39.737003], [-120.001615, 39.737054], [-120.001607, 39.73712], [-120.001599, 39.737313], [-120.001571, 39.737425], [-120.001539, 39.737502], [-120.001501, 39.737569], [-120.001453, 39.737672], [-120.001438, 39.73775], [-120.001452, 39.737837], [-120.001495, 39.737931], [-120.001579, 39.73804], [-120.00171, 39.738166], [-120.001866, 39.738261], [-120.002005, 39.738326], [-120.002118, 39.738372], [-120.002273, 39.738429], [-120.002394, 39.738481], [-120.0024, 39.738484088235296]]}, "props": {"MTFCC": "S1400", "NAME": null}}, {"geom": {"type": "LineString", "coordinates": [[-120.00017, 39.81525], [-120.000259, 39.815267], [-120.000369, 39.815298], [-120.000505, 39.815346], [-120.000608, 39.815396], [-120.00084, 39.81554], [-120.001007, 39.815619], [-120.001058, 39.815637], [-120.001167, 39.815658], [-120.001224, 39.815663], [-120.001281, 39.815663], [-120.001393, 39.815649], [-120.001457, 39.815631], [-120.001653, 39.815591], [-120.00187, 39.815564], [-120.001905, 39.815566], [-120.00198, 39.815582], [-120.002049, 39.815608], [-120.00211, 39.815646], [-120.002159, 39.815692], [-120.002194, 39.815746], [-120.002214, 39.815803], [-120.002251, 39.816274], [-120.002276, 39.816312], [-120.00232, 39.816339], [-120.002373, 39.81635], [-120.0024, 39.816346563636365]]}, "props": {"MTFCC": "S1400", "NAME": null}}, {"geom": {"type": "LineString", "coordinates": [[-120.001694, 39.734972], [-120.001882, 39.735202], [-120.001954, 39.73532]]}, "props": {"MTFCC": "S1400", "NAME": null}}, {"geom": {"type": "LineString", "coordinates": [[-120.000105, 39.971175], [-120.000349, 39.971422], [-120.000516, 39.971629], [-120.000814, 39.972042], [-120.001131, 39.972451], [-120.001261, 39.972585], [-120.001529, 39.972837], [-120.001819, 39.97313], [-120.0024, 39.97370617174516]]}, "props": {"MTFCC": "S1400", "NAME": null}}, {"geom": {"type": "LineString", "coordinates": [[-119.999581, 40.142248], [-119.999515, 40.142174], [-119.999318, 40.14189], [-119.999269, 40.141851], [-119.999211, 40.141816], [-119.999093, 40.141789], [-119.998991, 40.14178], [-119.998917, 40.141757], [-119.998874, 40.141733], [-119.998844, 40.141708], [-119.998762, 40.141614], [-119.99849, 40.141329], [-119.99816, 40.140956], [-119.997842, 40.14057], [-119.997516, 40.140129], [-119.99746, 40.140062], [-119.997379, 40.13998], [-119.997354, 40.139957], [-119.997285, 40.139922], [-119.99727, 40.139907], [-119.997258, 40.139885], [-119.997254, 40.139825], [-119.997255, 40.139265], [-119.997245, 40.138363], [-119.997259, 40.137929], [-119.997263, 40.136496], [-119.997273, 40.136435], [-119.997329, 40.136205], [-119.997332, 40.136137], [-119.997317, 40.135741], [-119.997308, 40.135644], [-119.997311, 40.135612], [-119.997346, 40.135444], [-119.99737, 40.135259], [-119.997378, 40.135001], [-119.997371, 40.134733], [-119.997367, 40.13414], [-119.997351, 40.133776], [-119.997333, 40.133579], [-119.997325, 40.133195], [-119.997327, 40.133049], [-119.997323, 40.132319], [-119.997354, 40.131493], [-119.997361, 40.130996], [-119.997375, 40.13054], [-119.997357, 40.129861], [-119.997356, 40.129479], [-119.99738, 40.128378], [-119.997388, 40.127531], [-119.997373, 40.127373], [-119.997403, 40.12695], [-119.997413, 40.12666], [-119.997412, 40.126302], [-119.997404, 40.126181], [-119.997387, 40.126152], [-119.997358, 40.126132], [-119.997203, 40.126099], [-119.997181, 40.126092], [-119.997164, 40.12608]]}, "props": {"MTFCC": "S1400", "NAME": null}}, {"geom": {"type": "LineString", "coordinates": [[-119.997316, 40.103958], [-119.997317, 40.103794], [-119.997352, 40.099991], [-119.997344, 40.096363], [-119.997334, 40.092729], [-119.997333, 40.092114], [-119.997333, 40.091788], [-119.997332, 40.091564], [-119.99733, 40.090826], [-119.997329, 40.090513], [-119.997329, 40.090499], [-119.997326, 40.08934], [-119.997326, 40.089242], [-119.997321, 40.086958], [-119.997318, 40.085973], [-119.997318, 40.085781], [-119.997321, 40.084523], [-119.997323, 40.083907], [-119.997323, 40.083779], [-119.997328, 40.081805], [-119.997328, 40.081742], [-119.997319, 40.080166], [-119.997314, 40.079227], [-119.99731, 40.078499], [-119.99731, 40.078412], [-119.997307, 40.077756], [-119.997304, 40.077266], [-119.997304, 40.077208], [-119.997292, 40.074777], [-119.997278, 40.072095], [-119.997277, 40.071767]]}, "props": {"MTFCC": "S1400", "NAME": null}}, {"geom": {"type": "LineString", "coordinates": [[-119.99731, 40.078499], [-119.997978, 40.078491], [-119.998604, 40.07849], [-119.999527, 40.07848], [-120.000056, 40.078491], [-120.000674, 40.078495]]}, "props": {"MTFCC": "S1400", "NAME": null}}, {"geom": {"type": "LineString", "coordinates": [[-119.995652, 40.40326], [-119.996357, 40.403343], [-119.99697, 40.403729], [-119.997824, 40.404155], [-119.99835, 40.4044], [-119.998411, 40.404418], [-119.998475, 40.404426], [-119.99855, 40.404422], [-119.998768, 40.404377], [-119.998884, 40.404339], [-119.999016, 40.404286], [-119.999421, 40.404125], [-120.000045, 40.403892], [-120.000562, 40.403692]]}, "props": {"MTFCC": "S1400", "NAME": null}}, {"geom": {"type": "LineString", "coordinates": [[-120.0024, 39.790867984189724], [-120.002358, 39.790864], [-120.002093, 39.790937], [-120.001803, 39.791033], [-120.00161, 39.791117], [-120.001417, 39.791238], [-120.001237, 39.791322], [-120.001044, 39.791347], [-120.000702, 39.791309], [-120.000495, 39.791286]]}, "props": {"MTFCC": "S1400", "NAME": null}}, {"geom": {"type": "LineString", "coordinates": [[-120.0024, 40.627895236607145], [-120.002383, 40.62789], [-120.002206, 40.627836], [-120.00162, 40.627679], [-120.001218, 40.627584], [-120.00085, 40.627518], [-120.000522, 40.627425], [-120.000084, 40.627287], [-119.999718, 40.627193], [-119.998795, 40.626919], [-119.99865, 40.626876], [-119.997772, 40.626642], [-119.99743, 40.626562], [-119.997408, 40.626536], [-119.997388, 40.62647], [-119.997391, 40.626392], [-119.997347, 40.626331], [-119.997281, 40.626296], [-119.997215, 40.626261], [-119.99715, 40.62622]]}, "props": {"MTFCC": "S1400", "NAME": null}}, {"geom": {"type": "LineString", "coordinates": [[-119.995897, 40.552808], [-119.996461, 40.552779], [-119.996813, 40.552756], [-119.997804, 40.552743], [-120.00003, 40.552658], [-120.001182, 40.552635], [-120.002278, 40.552569], [-120.0024, 40.55255687240356]]}, "props": {"MTFCC": "S1400", "NAME": null}}, {"geom": {"type": "LineString", "coordinates": [[-119.998248, 39.964653], [-119.998477, 39.964667], [-119.998676, 39.964669], [-119.998724, 39.964665], [-119.998786, 39.964658], [-119.998898, 39.964636], [-119.999116, 39.964572], [-119.999365, 39.964516], [-119.999576, 39.964478], [-120.000137, 39.964362], [-120.000452, 39.964309], [-120.000735, 39.96427], [-120.000924, 39.964247], [-120.001097, 39.964238], [-120.001215, 39.964241], [-120.001338, 39.964252], [-120.001458, 39.96428], [-120.001802, 39.964381], [-120.001965, 39.964423], [-120.0024, 39.96452602631579]]}, "props": {"MTFCC": "S1400", "NAME": null}}, {"geom": {"type": "LineString", "coordinates": [[-120.0024, 40.172895642384105], [-120.001355, 40.172892], [-120.00167, 40.172768], [-120.002376, 40.172499], [-120.0024, 40.17248969252078]]}, "props": {"MTFCC": "S1400", "NAME": null}}, {"geom": {"type": "LineString", "coordinates": [[-120.0024, 39.82848335483872], [-120.002188, 39.828668], [-120.002088, 39.828749], [-120.001813, 39.828906]]}, "props": {"MTFCC": "S1400", "NAME": null}}, {"geom": {"type": "LineString", "coordinates": [[-120.002083, 39.734765], [-120.002076, 39.734714], [-120.002054, 39.734651], [-120.002014, 39.734579], [-120.001946, 39.734489], [-120.001825, 39.734364]]}, "props": {"MTFCC": "S1400", "NAME": null}}, {"geom": {"type": "LineString", "coordinates": [[-120.0024, 40.15302472641509], [-120.00233, 40.153031], [-120.002246, 40.153044], [-120.002085, 40.153083], [-120.002009, 40.153093], [-120.001917, 40.153097], [-120.001769, 40.153091], [-120.001551, 40.15309], [-120.001296, 40.153107], [-120.000977, 40.153145], [-120.000825, 40.153154], [-120.000607, 40.153155], [-120.000401, 40.153149], [-119.999737, 40.153173], [-119.999279, 40.153163], [-119.999083, 40.153179], [-119.998909, 40.153188], [-119.998747, 40.153184], [-119.998116, 40.15313], [-119.99801, 40.15313], [-119.997904, 40.153138], [-119.997309, 40.15324], [-119.997058, 40.153271], [-119.997015, 40.153277]]}, "props": {"MTFCC": "S1400", "NAME": null}}, {"geom": {"type": "LineString", "coordinates": [[-119.996284, 40.245463], [-119.997645, 40.246123], [-119.998569, 40.246624], [-119.999568, 40.247177], [-120.000963, 40.247914], [-120.001444, 40.248175], [-120.001772, 40.248341], [-120.002276, 40.248569], [-120.0024, 40.24862648608137]]}, "props": {"MTFCC": "S1400", "NAME": null}}, {"geom": {"type": "LineString", "coordinates": [[-119.997277, 40.071767], [-119.997444, 40.071827], [-119.997551, 40.071853], [-119.997663, 40.071871], [-119.99778, 40.071881], [-119.997956, 40.071883], [-119.998846, 40.071866], [-119.999195, 40.071856], [-119.999581, 40.071869], [-119.999869, 40.071862], [-120.000023, 40.071847], [-120.000156, 40.071845], [-120.000262, 40.071853], [-120.000365, 40.07187], [-120.000475, 40.071898], [-120.001399, 40.072183], [-120.001936, 40.072357], [-120.0024, 40.07249231229597]]}, "props": {"MTFCC": "S1400", "NAME": null}}, {"geom": {"type": "LineString", "coordinates": [[-119.997333, 40.091788], [-119.997811, 40.091797], [-119.998669, 40.0918], [-119.999181, 40.091825], [-119.99966, 40.091828], [-120.001094, 40.091824], [-120.0024, 40.09183668933777]]}, "props": {"MTFCC": "S1400", "NAME": null}}, {"geom": {"type": "LineString", "coordinates": [[-119.997512, 40.077281], [-119.998072, 40.077295], [-120.000348, 40.077317], [-120.001176, 40.077316], [-120.002073, 40.077336], [-120.0024, 40.077336]]}, "props": {"MTFCC": "S1400", "NAME": null}}, {"geom": {"type": "LineString", "coordinates": [[-119.998177, 39.968035], [-119.998311, 39.968206], [-119.998392, 39.96829], [-119.998459, 39.968326], [-119.998683, 39.968393], [-119.998739, 39.968419], [-119.998784, 39.968459], [-119.999047, 39.968806], [-119.999085, 39.968864], [-119.999131, 39.968979], [-119.999215, 39.969098], [-119.999318, 39.969222], [-119.999404, 39.969351], [-119.999463, 39.969423], [-119.999546, 39.969497], [-119.999578, 39.969547], [-119.999604, 39.969604], [-119.999622, 39.969677], [-119.999628, 39.969728], [-119.999654, 39.969782], [-119.999765, 39.969914], [-119.999819, 39.970006], [-119.999849, 39.970084], [-119.999931, 39.970238], [-119.999984, 39.970372], [-120.000048, 39.970575], [-120.000049, 39.970615], [-120.000029, 39.970673], [-120.000003, 39.970707], [-119.99997, 39.970735], [-119.999929, 39.970762], [-119.999909, 39.970796], [-119.999907, 39.970825], [-119.999912, 39.970844], [-119.999983, 39.971004], [-120.000105, 39.971175]]}, "props": {"MTFCC": "S1400", "NAME": null}}, {"geom": {"type": "LineString", "coordinates": [[-119.997645, 40.246123], [-119.998169, 40.245892], [-119.998199, 40.245882], [-119.998427, 40.245802], [-119.998699, 40.245719], [-119.998781, 40.245709], [-119.99888, 40.245714], [-119.999805, 40.245826], [-120.000318, 40.245896], [-120.001672, 40.246063], [-120.002215, 40.246144], [-120.0024, 40.246173179184545]]}, "props": {"MTFCC": "S1400", "NAME": null}}, {"geom": {"type": "LineString", "coordinates": [[-119.998445, 39.95511], [-119.998809, 39.95534], [-119.999232, 39.955581], [-119.999341, 39.955636], [-119.999615, 39.955752], [-119.999957, 39.955932], [-120.000322, 39.956147], [-120.000536, 39.956289], [-120.000777, 39.956424], [-120.000957, 39.95656], [-120.001057, 39.956625], [-120.001272, 39.956718], [-120.001349, 39.956742], [-120.001447, 39.956756], [-120.001696, 39.956802], [-120.001907, 39.956865], [-120.002122, 39.956908], [-120.0024, 39.956956061016946]]}, "props": {"MTFCC": "S1400", "NAME": null}}, {"geom": {"type": "LineString", "coordinates": [[-120.001033, 39.809889], [-120.002117, 39.809678], [-120.0024, 39.80965951306497]]}, "props": {"MTFCC": "S1400", "NAME": null}}, {"geom": {"type": "LineString", "coordinates": [[-120.000105, 39.971175], [-119.999037, 39.971661], [-119.99837, 39.971769], [-119.99814, 39.971913], [-119.998095, 39.972117]]}, "props": {"MTFCC": "S1400", "NAME": null}}, {"geom": {"type": "LineString", "coordinates": [[-120.0024, 39.795504924999996], [-120.002334, 39.795481], [-120.002213, 39.795457], [-120.002016, 39.79543], [-120.001872, 39.795418], [-120.001752, 39.795412], [-120.001587, 39.795378], [-120.001506, 39.795372], [-120.001427, 39.79538], [-120.001396, 39.795387], [-120.001162, 39.795466], [-120.000911, 39.795565], [-120.000835, 39.79558], [-120.000737, 39.795611], [-120.000529, 39.795704]]}, "props": {"MTFCC": "S1400", "NAME": null}}, {"geom": {"type": "LineString", "coordinates": [[-119.998729, 39.930844], [-119.998802, 39.93103], [-119.998972, 39.93139], [-119.999049, 39.931533], [-119.999181, 39.93171], [-119.999549, 39.932081], [-119.999788, 39.93228], [-119.999977, 39.932414], [-120.00013, 39.932529], [-120.000196, 39.932561], [-120.000398, 39.932624], [-120.00055, 39.932697], [-120.000989, 39.932925], [-120.00152, 39.933166], [-120.001595, 39.933218], [-120.001681, 39.933292], [-120.001832, 39.933468], [-120.00191, 39.933596], [-120.002301, 39.934123], [-120.0024, 39.93423031297709]]}, "props": {"MTFCC": "S1400", "NAME": null}}, {"geom": {"type": "LineString", "coordinates": [[-119.997151, 40.120032], [-119.997433, 40.119981], [-119.997573, 40.119944], [-119.997751, 40.119886], [-119.997961, 40.119845], [-119.998542, 40.119777], [-119.999185, 40.119714], [-119.999332, 40.119693], [-119.99965, 40.119607], [-119.999764, 40.119593], [-120.000127, 40.119564], [-120.000516, 40.119541], [-120.000569, 40.119532], [-120.000765, 40.119477], [-120.001033, 40.119392], [-120.001352, 40.119277]]}, "props": {"MTFCC": "S1400", "NAME": null}}, {"geom": {"type": "LineString", "coordinates": [[-119.997333, 40.092114], [-119.997333, 40.091788], [-119.997332, 40.091564], [-119.99733, 40.090826], [-119.997329, 40.090513], [-119.997329, 40.090499], [-119.997326, 40.08934], [-119.997326, 40.089242], [-119.997321, 40.086958], [-119.997318, 40.085973], [-119.997318, 40.085781], [-119.997321, 40.084523], [-119.997323, 40.083907], [-119.997323, 40.083779], [-119.997328, 40.081805], [-119.997328, 40.081742], [-119.997319, 40.080166], [-119.997314, 40.079227], [-119.99731, 40.078499], [-119.99731, 40.078412], [-119.997307, 40.077756], [-119.997304, 40.077266], [-119.997304, 40.077208]]}, "props": {"MTFCC": "S1400", "NAME": null}}, {"geom": {"type": "LineString", "coordinates": [[-119.997844, 40.702416], [-119.999098, 40.703267], [-119.999541, 40.70343], [-119.999931, 40.703559], [-120.000174, 40.703625], [-120.000408, 40.703669], [-120.000555, 40.703682], [-120.001458, 40.703811], [-120.00202, 40.703878], [-120.0024, 40.703888762527235]]}, "props": {"MTFCC": "S1400", "NAME": null}}], "source": "https://www2.census.gov/geo/tiger/TIGER2024/ROADS/tl_2024_06035_roads.zip", "county_fips": "06035"}