{"type": "FeatureCollection", "features": [{"geom": {"type": "LineString", "coordinates": [[-119.167577, 37.37727], [-119.167577, 37.3783], [-119.167663, 37.378369], [-119.16772, 37.379147], [-119.167663, 37.379261], [-119.166487, 37.379353], [-119.166315, 37.379467], [-119.166401, 37.380016], [-119.16663, 37.380268], [-119.166956, 37.380578], [-119.167519, 37.381115], [-119.167547, 37.382122], [-119.167318, 37.383037], [-119.167375, 37.383815], [-119.167862, 37.384845], [-119.168034, 37.385303], [-119.168225, 37.385789], [-119.168493, 37.38647], [-119.168521, 37.386768], [-119.169381, 37.388004], [-119.170127, 37.389331], [-119.170499, 37.390338], [-119.170585, 37.390384], [-119.170901, 37.391551], [-119.171216, 37.391872], [-119.171848, 37.392055], [-119.172708, 37.391963], [-119.173311, 37.391757], [-119.173655, 37.3913], [-119.173655, 37.390407], [-119.17354, 37.390064], [-119.173597, 37.389446], [-119.173712, 37.389217], [-119.174085, 37.388966], [-119.175376, 37.388828], [-119.17638, 37.388851], [-119.177412, 37.38908], [-119.179764, 37.390156], [-119.180338, 37.390133], [-119.180797, 37.389973], [-119.181284, 37.389492], [-119.181715, 37.388257], [-119.181829, 37.387364], [-119.18203, 37.387021], [-119.182804, 37.386632], [-119.183694, 37.3859], [-119.183843, 37.385834], [-119.184984, 37.385328], [-119.185181, 37.385354], [-119.185672, 37.385419], [-119.186103, 37.385808], [-119.187164, 37.387914], [-119.187766, 37.388394], [-119.188225, 37.388577], [-119.188713, 37.38849], [-119.188741, 37.388486], [-119.189028, 37.38828], [-119.189286, 37.387021], [-119.18963, 37.386678], [-119.189974, 37.386609], [-119.190462, 37.386632], [-119.190602, 37.38668], [-119.193674, 37.38773], [-119.194248, 37.387685], [-119.194907, 37.387524], [-119.195366, 37.387524], [-119.196284, 37.38773], [-119.197288, 37.388119], [-119.197517, 37.388348]]}, "props": {"MTFCC": "S1400", "NAME": null}}, {"geom": {"type": "LineString", "coordinates": [[-119.197517, 37.388348], [-119.198033, 37.388668], [-119.199381, 37.390018], [-119.199984, 37.390362], [-119.200873, 37.390224], [-119.201188, 37.390362], [-119.201389, 37.390636], [-119.201504, 37.39114], [-119.201705, 37.393039], [-119.201963, 37.393634], [-119.202676, 37.394443], [-119.203455, 37.395327], [-119.203714, 37.396105], [-119.204029, 37.396723], [-119.205148, 37.397616], [-119.205693, 37.398233], [-119.205894, 37.398966], [-119.205894, 37.399721], [-119.206153, 37.400705], [-119.206956, 37.402146], [-119.207157, 37.402764], [-119.2071, 37.403748], [-119.206871, 37.404549], [-119.2069, 37.406083], [-119.206986, 37.406472], [-119.207589, 37.40741], [-119.207933, 37.407684], [-119.208191, 37.407776], [-119.20929, 37.404805], [-119.211018, 37.404432], [-119.212977, 37.404805], [-119.214445, 37.40853], [-119.214991, 37.408504], [-119.215449, 37.408484], [-119.217688, 37.407797], [-119.218175, 37.407888], [-119.21872, 37.408163], [-119.218864, 37.408597], [-119.218922, 37.409124], [-119.218349, 37.411367], [-119.218378, 37.412488], [-119.218608, 37.41306]]}, "props": {"MTFCC": "S1400", "NAME": null}}, {"geom": {"type": "LineString", "coordinates": [[-119.24705258038148, 37.3641], [-119.246546, 37.364461], [-119.246345, 37.364804], [-119.246346, 37.365491], [-119.246031, 37.366017], [-119.246204, 37.367757], [-119.246893, 37.368214], [-119.246865, 37.369358], [-119.246693, 37.369495], [-119.245604, 37.369954], [-119.245232, 37.370251], [-119.245146, 37.370641], [-119.245462, 37.371258], [-119.245446, 37.371571], [-119.245434, 37.371807], [-119.244631, 37.372746], [-119.244517, 37.372998], [-119.244546, 37.373822], [-119.244633, 37.374005], [-119.244633, 37.374487]]}, "props": {"MTFCC": "S1400", "NAME": null}}, {"geom": {"type": "LineString", "coordinates": [[-118.989315, 37.367205], [-118.993681, 37.367351], [-118.993939, 37.36774], [-118.994055, 37.368358], [-118.994141, 37.368426], [-118.99417, 37.368701], [-118.994457, 37.368907], [-118.996094, 37.369212], [-119.000952, 37.370119], [-119.002607, 37.370349], [-119.003467, 37.370349], [-119.003668, 37.370509], [-119.005417, 37.370922], [-119.008628, 37.371816], [-119.010233, 37.372389], [-119.012011, 37.373191], [-119.014876, 37.374942], [-119.01708, 37.37632], [-119.01751, 37.376504], [-119.01816, 37.37666], [-119.019603, 37.377008], [-119.020406, 37.377352], [-119.021552, 37.378084], [-119.022326, 37.378909], [-119.02267, 37.379321], [-119.023329, 37.380969], [-119.023329, 37.381678]]}, "props": {"MTFCC": "S1400", "NAME": null}}, {"geom": {"type": "LineString", "coordinates": [[-119.25141858333333, 37.3641], [-119.251395, 37.364142], [-119.251324, 37.364554], [-119.251309, 37.366453], [-119.251846, 37.368192], [-119.251932, 37.369268], [-119.250957, 37.370101], [-119.249791, 37.370409], [-119.249246, 37.370867], [-119.248501, 37.371302], [-119.248243, 37.371737], [-119.248244, 37.372126], [-119.24727, 37.373065], [-119.246066, 37.373638], [-119.244948, 37.374452], [-119.244633, 37.374487]]}, "props": {"MTFCC": "S1400", "NAME": null}}, {"geom": {"type": "LineString", "coordinates": [[-119.23053, 37.391476], [-119.23096, 37.391499], [-119.232537, 37.39081], [-119.23291, 37.390765], [-119.233427, 37.390902], [-119.234116, 37.391335], [-119.234948, 37.392273], [-119.235608, 37.392615], [-119.235763, 37.392627], [-119.237071, 37.392729], [-119.238506, 37.393208], [-119.238764, 37.39346], [-119.238879, 37.393665], [-119.238794, 37.395335], [-119.238903, 37.395455], [-119.239024, 37.395587], [-119.239368, 37.395564], [-119.240257, 37.395288], [-119.241376, 37.394646], [-119.241979, 37.394599], [-119.242265, 37.394714], [-119.242983, 37.395514], [-119.243903, 37.397161], [-119.244535, 37.397731], [-119.245339, 37.39899], [-119.245569, 37.399812], [-119.24554, 37.400178], [-119.245284, 37.40107], [-119.245056, 37.402489], [-119.244797, 37.402597], [-119.244511, 37.402717], [-119.240725, 37.402741], [-119.240008, 37.402878], [-119.23885, 37.403202], [-119.23846, 37.403473], [-119.23846, 37.404092], [-119.238833, 37.404962], [-119.238954, 37.406178], [-119.238977, 37.406405], [-119.238891, 37.406703], [-119.238518, 37.407024], [-119.237829, 37.40746], [-119.237486, 37.407987], [-119.23674, 37.408423], [-119.235191, 37.409637], [-119.234731, 37.410463], [-119.234703, 37.410646], [-119.234043, 37.411265], [-119.233059, 37.411625], [-119.233039, 37.411632], [-119.232867, 37.411815], [-119.232582, 37.412905], [-119.232323, 37.4139], [-119.232495, 37.41422], [-119.234072, 37.415229]]}, "props": {"MTFCC": "S1400", "NAME": null}}, {"geom": {"type": "LineString", "coordinates": [[-119.178847, 37.376288], [-119.178618, 37.376768], [-119.178474, 37.376951], [-119.177413, 37.377661], [-119.176495, 37.378507], [-119.176237, 37.379056], [-119.176409, 37.379629], [-119.176352, 37.379926], [-119.176036, 37.380109], [-119.175549, 37.380132], [-119.174918, 37.379834], [-119.174574, 37.379857], [-119.174545, 37.38004], [-119.174774, 37.380406], [-119.175434, 37.380933], [-119.175473, 37.380943], [-119.175692, 37.381002], [-119.17638, 37.380864], [-119.177126, 37.38059], [-119.178216, 37.379789], [-119.178761, 37.379514], [-119.182001, 37.378553], [-119.183952, 37.377775], [-119.184325, 37.377798], [-119.184095, 37.378439], [-119.183665, 37.378759], [-119.181457, 37.379721], [-119.179535, 37.380293], [-119.17937, 37.380475], [-119.179162, 37.380704], [-119.178932, 37.381528], [-119.178359, 37.382352], [-119.177814, 37.38265], [-119.17291, 37.384274], [-119.172279, 37.384228], [-119.172049, 37.384114], [-119.171885, 37.383834], [-119.171419, 37.383038], [-119.170616, 37.381184], [-119.170215, 37.379696], [-119.169979, 37.379361], [-119.169556, 37.378758], [-119.168409, 37.377545], [-119.167921, 37.377293], [-119.167577, 37.37727]]}, "props": {"MTFCC": "S1400", "NAME": null}}, {"geom": {"type": "LineString", "coordinates": [[-118.989315, 37.367205], [-118.993681, 37.367351], [-118.993939, 37.36774], [-118.994055, 37.368358], [-118.994141, 37.368426], [-118.99417, 37.368701], [-118.994457, 37.368907], [-118.996094, 37.369212], [-119.000952, 37.370119], [-119.002607, 37.370349], [-119.003467, 37.370349], [-119.003668, 37.370509], [-119.005417, 37.370922], [-119.008628, 37.371816], [-119.010233, 37.372389], [-119.012011, 37.373191], [-119.014876, 37.374942], [-119.01708, 37.37632], [-119.01751, 37.376504], [-119.01816, 37.37666], [-119.019603, 37.377008], [-119.020406, 37.377352], [-119.021552, 37.378084], [-119.022326, 37.378909], [-119.02267, 37.379321], [-119.023329, 37.380969], [-119.023329, 37.381678]]}, "props": {"MTFCC": "S1400", "NAME": null}}, {"geom": {"type": "LineString", "coordinates": [[-119.247901, 37.379637], [-119.248588, 37.378515], [-119.24939, 37.377714], [-119.249934, 37.376684], [-119.250496, 37.376317], [-119.250957, 37.376148], [-119.251721, 37.37552], [-119.251923, 37.375363], [-119.252037, 37.375275], [-119.25214, 37.374943], [-119.252214, 37.374613], [-119.252329, 37.374579], [-119.252588, 37.373273], [-119.252818, 37.373044], [-119.253936, 37.372747], [-119.254494, 37.372512], [-119.255026, 37.37229], [-119.25537, 37.372016], [-119.255686, 37.371512], [-119.255715, 37.371123], [-119.2556, 37.370872], [-119.254884, 37.370459], [-119.254769, 37.370253], [-119.254999, 37.36959], [-119.255602, 37.36911], [-119.256061, 37.368561], [-119.256291, 37.368034], [-119.256607, 37.366432], [-119.25675, 37.366158], [-119.256951, 37.366066], [-119.258585, 37.366227], [-119.259274, 37.365999], [-119.259503, 37.36577], [-119.259561, 37.365358], [-119.259905, 37.364672], [-119.260278, 37.364466], [-119.26198159793815, 37.3641]]}, "props": {"MTFCC": "S1400", "NAME": null}}, {"geom": {"type": "LineString", "coordinates": [[-119.157922, 37.367885], [-119.15838, 37.370037], [-119.158466, 37.371135], [-119.158424, 37.371181], [-119.158093, 37.371547], [-119.157577, 37.371799], [-119.15729, 37.372188], [-119.15729, 37.372485], [-119.157605, 37.372691], [-119.159354, 37.373195], [-119.159841, 37.373424], [-119.160701, 37.37418], [-119.161487, 37.374943], [-119.163219, 37.375269], [-119.16385, 37.375372], [-119.164563, 37.375864], [-119.165341, 37.3764], [-119.167119, 37.37695], [-119.167577, 37.37727]]}, "props": {"MTFCC": "S1400", "NAME": null}}, {"geom": {"type": "LineString", "coordinates": [[-119.23053, 37.391476], [-119.230115, 37.392431], [-119.230001, 37.392946], [-119.229869, 37.393548], [-119.229486, 37.39427], [-119.229076, 37.394784], [-119.226992, 37.396367], [-119.226483, 37.396755], [-119.225791, 37.397375], [-119.225528, 37.397637], [-119.225072, 37.39816], [-119.224822, 37.398579], [-119.224447, 37.399207], [-119.224398, 37.40073], [-119.224156, 37.401214], [-119.224002, 37.401526], [-119.222862, 37.402616], [-119.221664, 37.403524], [-119.221038, 37.404344], [-119.220925, 37.404661], [-119.221014, 37.405025], [-119.221246, 37.405411], [-119.222341, 37.406001], [-119.222832, 37.406568], [-119.222864, 37.407137], [-119.222439, 37.408138], [-119.222558, 37.408819], [-119.222392, 37.409707], [-119.222254, 37.410572], [-119.221907, 37.41183], [-119.22186, 37.412005], [-119.221463, 37.412779], [-119.22115, 37.413233], [-119.220636, 37.413573], [-119.220321, 37.413641], [-119.218608, 37.41306]]}, "props": {"MTFCC": "S1400", "NAME": null}}, {"geom": {"type": "MultiLineString", "coordinates": [[[-119.2437744223301, 37.3641], [-119.243621, 37.364394], [-119.243421, 37.364554], [-119.243304, 37.364774], [-119.24294356909871, 37.3641]], [[-119.21018633190026, 37.3641], [-119.20989, 37.365718], [-119.209572, 37.366537], [-119.209275, 37.3673], [-119.208678, 37.368839], [-119.207772, 37.37032], [-119.207034, 37.372212], [-119.206565, 37.372941], [-119.206215, 37.373832], [-119.206064, 37.374217], [-119.20589, 37.374284], [-119.204704, 37.374327], [-119.204005, 37.374881], [-119.203188, 37.37558], [-119.202461, 37.3764], [-119.202258, 37.376491], [-119.201803, 37.3764], [-119.201298, 37.375441], [-119.201292, 37.374876], [-119.201662, 37.374], [-119.201465, 37.373704], [-119.201469, 37.37327], [-119.201673, 37.373111], [-119.201764, 37.372586], [-119.201678, 37.37254], [-119.201463, 37.371261], [-119.201449, 37.370506], [-119.201408, 37.368133], [-119.201425, 37.367979], [-119.201629, 37.366169], [-119.201717, 37.36601], [-119.201844, 37.364731], [-119.2017189843587, 37.3641]], [[-119.19917431719128, 37.3641], [-119.198797, 37.364444], [-119.198399, 37.364399], [-119.198179, 37.364221], [-119.198144, 37.364193], [-119.19811357504216, 37.3641]]]}, "props": {"MTFCC": "S1400", "NAME": null}}, {"geom": {"type": "LineString", "coordinates": [[-119.215713, 37.419697], [-119.215718, 37.420158], [-119.216103, 37.421171], [-119.216139, 37.421816], [-119.215942, 37.42251], [-119.215892, 37.42269], [-119.215557, 37.423473], [-119.215591, 37.423933], [-119.216115, 37.424326], [-119.216089, 37.42458], [-119.215349, 37.424606], [-119.215008, 37.424471], [-119.214583, 37.424086], [-119.213965, 37.423108], [-119.212888, 37.422292], [-119.212215, 37.420882], [-119.211793, 37.420491], [-119.210744, 37.419521], [-119.21035, 37.418931], [-119.20967, 37.418564], [-119.209638, 37.418546], [-119.209204, 37.418589], [-119.207608, 37.419839], [-119.207232, 37.419973], [-119.206851, 37.41996], [-119.206393, 37.419946], [-119.206016, 37.419785], [-119.205059, 37.419093], [-119.204626, 37.419092], [-119.20452, 37.419211], [-119.204364, 37.419386], [-119.204011, 37.42016], [-119.204174, 37.42107], [-119.204187, 37.421105], [-119.204314, 37.421457], [-119.204278, 37.422141], [-119.2041, 37.422686], [-119.203549, 37.423186], [-119.203085, 37.423412], [-119.20288, 37.423708], [-119.202782, 37.425005], [-119.202596, 37.425572], [-119.202455, 37.426006], [-119.202163, 37.426531], [-119.200708, 37.428212]]}, "props": {"MTFCC": "S1400", "NAME": null}}, {"geom": {"type": "LineString", "coordinates": [[-118.98555489811321, 37.3641], [-118.985411, 37.364769], [-118.985321, 37.365211], [-118.985237, 37.365429], [-118.985196, 37.365488], [-118.985115, 37.36557], [-118.985043, 37.365633], [-118.984934, 37.365717], [-118.984508, 37.36603], [-118.983954, 37.366391], [-118.983855, 37.366491], [-118.983787, 37.366672], [-118.983693, 37.366966], [-118.983646, 37.367098], [-118.983553, 37.367207], [-118.983415, 37.367322], [-118.983416, 37.367376], [-118.983485, 37.367433], [-118.983531, 37.367466], [-118.983621, 37.367531], [-118.983723, 37.367663], [-118.983848, 37.367922], [-118.984001, 37.36819], [-118.984235, 37.368505], [-118.984409, 37.368682], [-118.984597, 37.368747], [-118.984633, 37.368754], [-118.985413, 37.368913], [-118.986795, 37.369141], [-118.988097, 37.369381], [-118.989145, 37.369556], [-118.989331, 37.368913], [-118.989373, 37.368769], [-118.989446, 37.368501], [-118.98946, 37.368398], [-118.989449, 37.368244], [-118.989435, 37.368175], [-118.989335, 37.367929], [-118.989316, 37.367709], [-118.989333, 37.367253], [-118.989315, 37.367205]]}, "props": {"MTFCC": "S1400", "NAME": null}}, {"geom": {"type": "LineString", "coordinates": [[-119.218608, 37.41306], [-119.218293, 37.41409], [-119.218235, 37.414593], [-119.218201, 37.414665], [-119.218064, 37.41496], [-119.217432, 37.415166], [-119.216716, 37.41599], [-119.216257, 37.416219], [-119.215884, 37.416562], [-119.215368, 37.417249], [-119.215052, 37.417935], [-119.215052, 37.418209], [-119.215052, 37.418485], [-119.215397, 37.419263], [-119.215713, 37.419697]]}, "props": {"MTFCC": "S1400", "NAME": null}}, {"geom": {"type": "LineString", "coordinates": [[-119.187537, 37.404894], [-119.187709, 37.405488], [-119.188311, 37.406152], [-119.188598, 37.406861], [-119.189602, 37.407571], [-119.189631, 37.408189], [-119.189487, 37.408601], [-119.189545, 37.40915], [-119.189621, 37.409302], [-119.189717, 37.409493], [-119.190004, 37.409676], [-119.19161, 37.410019], [-119.192414, 37.4105], [-119.192989, 37.410965], [-119.194422, 37.412125], [-119.194623, 37.412445], [-119.19516, 37.414202], [-119.195225, 37.414413], [-119.195513, 37.415443], [-119.195513, 37.416038], [-119.195341, 37.416839], [-119.193906, 37.419837], [-119.193304, 37.420775], [-119.193304, 37.421564], [-119.193304, 37.422332], [-119.19273, 37.423407], [-119.192845, 37.423842], [-119.193075, 37.424048], [-119.193103, 37.424918], [-119.191827, 37.425998]]}, "props": {"MTFCC": "S1400", "NAME": null}}, {"geom": {"type": "LineString", "coordinates": [[-119.187537, 37.404894], [-119.187473, 37.405212], [-119.18736, 37.405392], [-119.18714, 37.405744], [-119.187133, 37.40694], [-119.18713, 37.407478]]}, "props": {"MTFCC": "S1400", "NAME": null}}, {"geom": {"type": "LineString", "coordinates": [[-119.16731057648283, 37.3641], [-119.16727, 37.364294], [-119.167127, 37.364454], [-119.166782, 37.365232], [-119.16649, 37.365532], [-119.165693, 37.366354], [-119.165647, 37.366831], [-119.165578, 37.367566], [-119.165492, 37.367612], [-119.165463, 37.367818], [-119.164918, 37.368482]]}, "props": {"MTFCC": "S1400", "NAME": null}}, {"geom": {"type": "LineString", "coordinates": [[-119.15515214754097, 37.3641], [-119.155056, 37.364406], [-119.155142, 37.36475], [-119.155543, 37.36507], [-119.15669, 37.365345], [-119.157321, 37.365757], [-119.157435, 37.366146]]}, "props": {"MTFCC": "S1400", "NAME": null}}, {"geom": {"type": "LineString", "coordinates": [[-119.244633, 37.374487], [-119.244259, 37.374939], [-119.243798, 37.375488], [-119.243628, 37.375873], [-119.242285, 37.377279], [-119.242141, 37.37771], [-119.242113, 37.378015], [-119.242057, 37.378642], [-119.2416, 37.37914], [-119.241057, 37.380504], [-119.240856, 37.380775], [-119.24037, 37.38116], [-119.238394, 37.382175], [-119.237536, 37.382398], [-119.236734, 37.382462], [-119.235588, 37.381998], [-119.235416, 37.382066], [-119.235159, 37.382497], [-119.234757, 37.382632], [-119.233353, 37.382669], [-119.233068, 37.382873], [-119.233213, 37.383894], [-119.233068, 37.384031], [-119.232768, 37.384127], [-119.231954, 37.384389], [-119.231123, 37.384773], [-119.230808, 37.385476], [-119.230832, 37.387365], [-119.230834, 37.38805], [-119.23078, 37.388184], [-119.230719, 37.388337], [-119.230654, 37.390659], [-119.230646, 37.390976], [-119.23053, 37.391476]]}, "props": {"MTFCC": "S1400", "NAME": null}}, {"geom": {"type": "LineString", "coordinates": [[-119.231033, 37.418525], [-119.230258, 37.418205], [-119.229713, 37.418114], [-119.228766, 37.41816], [-119.228566, 37.418252], [-119.228221, 37.418229], [-119.227159, 37.417761], [-119.227131, 37.417749], [-119.226614, 37.417818], [-119.225525, 37.41855], [-119.224779, 37.41855], [-119.22409, 37.418368], [-119.222995, 37.417024], [-119.222763, 37.416225], [-119.221343, 37.416578], [-119.220848, 37.418437], [-119.220017, 37.420497], [-119.219701, 37.420795], [-119.219444, 37.420858], [-119.219242, 37.420909], [-119.21775, 37.420795], [-119.217062, 37.420589], [-119.215914, 37.41972], [-119.215713, 37.419697]]}, "props": {"MTFCC": "S1400", "NAME": null}}, {"geom": {"type": "LineString", "coordinates": [[-119.157435, 37.366146], [-119.157607, 37.366306], [-119.157626, 37.366438], [-119.157664, 37.366695], [-119.157843, 37.367524], [-119.157922, 37.367885]]}, "props": {"MTFCC": "S1400", "NAME": null}}, {"geom": {"type": "LineString", "coordinates": [[-119.157435, 37.366146], [-119.157292, 37.36626], [-119.157111, 37.366595], [-119.156762, 37.367244], [-119.156777, 37.36755], [-119.15689, 37.367656], [-119.157371, 37.367762], [-119.157922, 37.367885]]}, "props": {"MTFCC": "S1400", "NAME": null}}, {"geom": {"type": "LineString", "coordinates": [[-118.98937185623004, 37.3641], [-118.989272, 37.364335], [-118.989191, 37.364467], [-118.989082, 37.364599], [-118.989045, 37.364717], [-118.989031, 37.364816], [-118.989066, 37.365274], [-118.989039, 37.365531], [-118.989008, 37.365653], [-118.989032, 37.365707], [-118.989073, 37.36576], [-118.989257, 37.365915], [-118.989282, 37.365982], [-118.989256, 37.366086], [-118.989169, 37.366177], [-118.98908, 37.366309], [-118.989071, 37.366323], [-118.989029, 37.366445], [-118.989005, 37.366594], [-118.988997, 37.36672], [-118.989062, 37.366845], [-118.989172, 37.366937], [-118.989247, 37.367022], [-118.989315, 37.367205]]}, "props": {"MTFCC": "S1400", "NAME": null}}, {"geom": {"type": "LineString", "coordinates": [[-119.197517, 37.388348], [-119.197173, 37.388783], [-119.196341, 37.389561], [-119.195037, 37.391528], [-119.195022, 37.391552], [-119.194191, 37.392422], [-119.19181, 37.393795], [-119.190864, 37.394619], [-119.190376, 37.395694], [-119.190319, 37.397846], [-119.190175, 37.398372], [-119.189458, 37.399791], [-119.189188, 37.401225], [-119.189028, 37.402079], [-119.187537, 37.404894]]}, "props": {"MTFCC": "S1400", "NAME": null}}], "source": "https://www2.census.gov/geo/tiger/TIGER2024/ROADS/tl_2024_06019_roads.zip", "county_fips": "06019"}