{"type": "FeatureCollection", "features": [{"geom": {"type": "LineString", "coordinates": [[-116.147341, 40.683173], [-116.147329, 40.683568], [-116.147335, 40.68366], [-116.14735, 40.683689], [-116.147442, 40.683921], [-116.147469, 40.684067], [-116.147491, 40.684328], [-116.147508, 40.684415], [-116.147526, 40.684589], [-116.147704, 40.684755], [-116.147993, 40.684939], [-116.14808, 40.684992], [-116.148429, 40.685118], [-116.148718, 40.685231], [-116.149097, 40.685414], [-116.149213, 40.685488], [-116.149296, 40.685553], [-116.149475, 40.685802], [-116.149493, 40.685831], [-116.149569, 40.685954], [-116.149613, 40.686047], [-116.149513, 40.686179], [-116.149374, 40.68634], [-116.149205, 40.686637], [-116.149067, 40.686844], [-116.148627, 40.687401], [-116.148379, 40.687743], [-116.147835, 40.688592], [-116.147292, 40.689359], [-116.14694, 40.689787], [-116.146414, 40.690322], [-116.146033, 40.690673], [-116.145535, 40.691181], [-116.145247, 40.691507], [-116.144745, 40.692108], [-116.144496, 40.692448], [-116.14392, 40.693151], [-116.143672, 40.693425], [-116.143427, 40.693724], [-116.142702, 40.694505], [-116.142227, 40.694937], [-116.141749, 40.695313], [-116.1415, 40.695486365187726]]}, "props": {"MTFCC": "S1400", "NAME": null}}, {"geom": {"type": "LineString", "coordinates": [[-116.142164, 40.724317], [-116.142665, 40.723994], [-116.143008, 40.723747], [-116.143288, 40.723494], [-116.14477, 40.722401], [-116.145605, 40.721843], [-116.145727, 40.721748], [-116.146416, 40.721212], [-116.147543, 40.720366], [-116.148089, 40.71998], [-116.148645, 40.719545], [-116.150838, 40.717959], [-116.152409, 40.716752], [-116.153412, 40.716033], [-116.153903, 40.715691], [-116.154503, 40.715248], [-116.154936, 40.714915], [-116.155943, 40.71418], [-116.1563, 40.713906], [-116.156755, 40.713581], [-116.157358, 40.713134], [-116.157735, 40.712835]]}, "props": {"MTFCC": "S1400", "NAME": null}}, {"geom": {"type": "LineString", "coordinates": [[-116.157724, 40.709391], [-116.157121, 40.709749], [-116.156243, 40.710219], [-116.155951, 40.710392], [-116.154967, 40.710938], [-116.154205, 40.711346], [-116.153479, 40.711786], [-116.151915, 40.712641], [-116.151026, 40.713128], [-116.14725, 40.715197], [-116.146685, 40.715517], [-116.144614, 40.716589], [-116.14392, 40.716925], [-116.143496, 40.71712], [-116.143083, 40.717284], [-116.142154, 40.717627], [-116.141573, 40.717819], [-116.1415, 40.717840076115486]]}, "props": {"MTFCC": "S1100", "NAME": null}}, {"geom": {"type": "LineString", "coordinates": [[-116.1415, 40.717511491477275], [-116.14195, 40.71736], [-116.142157, 40.717287], [-116.142909, 40.717022], [-116.143771, 40.716662], [-116.144421, 40.716368], [-116.145127, 40.716007], [-116.146526, 40.71523], [-116.147003, 40.71495], [-116.14888, 40.713925], [-116.151117, 40.712689], [-116.151923, 40.712244], [-116.153215, 40.711512], [-116.153512, 40.711357], [-116.155976, 40.710003], [-116.157724, 40.709072]]}, "props": {"MTFCC": "S1100", "NAME": null}}, {"geom": {"type": "LineString", "coordinates": [[-116.157675, 40.706088], [-116.15686, 40.706519], [-116.156411, 40.706748], [-116.156067, 40.706956], [-116.155876, 40.707058], [-116.155456, 40.707353], [-116.155228, 40.707538], [-116.154995, 40.707774], [-116.154587, 40.708287], [-116.154498, 40.708385], [-116.154427, 40.708491], [-116.154173, 40.708972], [-116.154106, 40.709124], [-116.153774, 40.709771], [-116.153699, 40.709941], [-116.153612, 40.710191], [-116.153564, 40.710279], [-116.153504, 40.710362], [-116.153433, 40.710441], [-116.153361, 40.710505], [-116.153237, 40.710644], [-116.15312, 40.710758], [-116.152895, 40.710923], [-116.152415, 40.711223], [-116.152054, 40.711463], [-116.151667, 40.711745], [-116.151111, 40.712087], [-116.150402, 40.712464], [-116.149988, 40.71271], [-116.149774, 40.712815], [-116.149292, 40.713105], [-116.148987, 40.713262], [-116.147511, 40.71408], [-116.14633, 40.714717], [-116.145863, 40.714988], [-116.145361, 40.715246], [-116.144899, 40.715524], [-116.144051, 40.71597], [-116.143448, 40.716258], [-116.142448, 40.716675], [-116.142282, 40.716733], [-116.142156, 40.716793], [-116.1421, 40.71682], [-116.141859, 40.716913], [-116.141537, 40.717005], [-116.1415, 40.71701722773973]]}, "props": {"MTFCC": "S1400", "NAME": null}}, {"geom": {"type": "LineString", "coordinates": [[-116.1415, 40.699199259541984], [-116.141521, 40.699224]]}, "props": {"MTFCC": "S1400", "NAME": null}}, {"geom": {"type": "LineString", "coordinates": [[-116.154853, 40.681422], [-116.154763, 40.681429], [-116.154346, 40.681506], [-116.154256, 40.681536], [-116.15417, 40.681593], [-116.154028, 40.68171], [-116.153942, 40.681767], [-116.153738, 40.681947], [-116.15369, 40.68211], [-116.153624, 40.682433], [-116.153563, 40.682516], [-116.153524, 40.68262], [-116.153423, 40.682785], [-116.153337, 40.682899], [-116.153251, 40.682971], [-116.153144, 40.683107], [-116.153138, 40.683164], [-116.15317, 40.683215], [-116.153217, 40.683242], [-116.15338, 40.68331], [-116.153554, 40.683424], [-116.153589, 40.683439], [-116.153617, 40.683482], [-116.15361, 40.683547], [-116.153587, 40.683576], [-116.153416, 40.683648], [-116.153351, 40.683685], [-116.153148, 40.683852], [-116.153065, 40.683891], [-116.152971, 40.683908], [-116.152909, 40.683928], [-116.152812, 40.68396], [-116.152664, 40.68398], [-116.152396, 40.683976], [-116.152268, 40.683994], [-116.152147, 40.684032], [-116.152039, 40.684088], [-116.151547, 40.684454], [-116.150975, 40.685021], [-116.150572, 40.685299], [-116.150385, 40.68545], [-116.150218, 40.685571], [-116.149956, 40.685778], [-116.149844, 40.685851], [-116.149613, 40.686047]]}, "props": {"MTFCC": "S1400", "NAME": null}}, {"geom": {"type": "LineString", "coordinates": [[-116.153846, 40.653816], [-116.153687, 40.654088], [-116.153366, 40.654606], [-116.153124, 40.655015], [-116.152184, 40.65648], [-116.151775, 40.657165], [-116.151211, 40.658045], [-116.148857, 40.661856], [-116.148397, 40.662567], [-116.148135, 40.663009], [-116.146749, 40.665232], [-116.14496, 40.668045], [-116.144527, 40.668773], [-116.143757, 40.669972], [-116.143418, 40.670558], [-116.142835, 40.671462], [-116.142211, 40.672476], [-116.1415, 40.673589498305105]]}, "props": {"MTFCC": "S1200", "NAME": null}}, {"geom": {"type": "LineString", "coordinates": [[-116.1415, 40.69870563576159], [-116.141555, 40.698706], [-116.141715, 40.698718]]}, "props": {"MTFCC": "S1400", "NAME": null}}, {"geom": {"type": "LineString", "coordinates": [[-116.1415, 40.69742421546596], [-116.14212, 40.697566]]}, "props": {"MTFCC": "S1400", "NAME": null}}, {"geom": {"type": "LineString", "coordinates": [[-116.142164, 40.724317], [-116.142033, 40.724248], [-116.141887, 40.724201], [-116.141778, 40.724176], [-116.141652, 40.724159], [-116.1415, 40.724151608879495]]}, "props": {"MTFCC": "S1400", "NAME": null}}, {"geom": {"type": "LineString", "coordinates": [[-116.1415, 40.724631120961064], [-116.142164, 40.724317]]}, "props": {"MTFCC": "S1400", "NAME": null}}, {"geom": {"type": "MultiLineString", "coordinates": [[[-116.14406266666666, 40.7247], [-116.143988, 40.724688], [-116.143863, 40.724682], [-116.143435, 40.724698], [-116.14342344444444, 40.7247]], [[-116.1431844, 40.7247], [-116.143098, 40.724673], [-116.143006, 40.724613], [-116.142911, 40.724497], [-116.142845, 40.724454], [-116.142736, 40.724424], [-116.142602, 40.724421], [-116.142531, 40.724415], [-116.142341, 40.724372], [-116.142164, 40.724317]]]}, "props": {"MTFCC": "S1400", "NAME": null}}], "source": "https://www2.census.gov/geo/tiger/TIGER2024/ROADS/tl_2024_32007_roads.zip", "county_fips": "32007"}